[{"OBJECT_NAME":"YAOGAN-36 03A","OBJECT_ID":"2022-160A","EPOCH":"2026-03-09T21:08:19.248576","MEAN_MOTION":15.31468155,"ECCENTRICITY":0.00027649,"INCLINATION":34.9999,"RA_OF_ASC_NODE":237.2222,"ARG_OF_PERICENTER":84.1273,"MEAN_ANOMALY":275.9759,"EPHEMERIS_TYPE":0,"CLASSIFICATION_TYPE":"U","NORAD_CAT_ID":54372,"ELEMENT_SET_NO":999,"REV_AT_EPOCH":18296,"BSTAR":0.00056596392,"MEAN_MOTION_DOT":0.00017652,"MEAN_MOTION_DDOT":0},{"OBJECT_NAME":"STARLINK-30283","OBJECT_ID":"2023-124T","EPOCH":"2026-03-09T16:19:23.853216","MEAN_MOTION":15.30196514,"ECCENTRICITY":0.00013447,"INCLINATION":53.1595,"RA_OF_ASC_NODE":207.0334,"ARG_OF_PERICENTER":88.9333,"MEAN_ANOMALY":271.1822,"EPHEMERIS_TYPE":0,"CLASSIFICATION_TYPE":"U","NORAD_CAT_ID":57680,"ELEMENT_SET_NO":999,"REV_AT_EPOCH":14356,"BSTAR":7.0780268e-5,"MEAN_MOTION_DOT":1.737e-5,"MEAN_MOTION_DDOT":0}]
